KUIPER-00112            
1 65150U 25171U   25297.83336806  .00066405  00000+0  19279-2 0  9995
2 65150  51.8783  46.1453 0006044  47.7567   2.5291 15.34864339  4362
KUIPER-00114            
1 65151U 25171V   25297.83336806  .00033665  00000+0  44307-2 0  9998
2 65151  51.9001  56.3687 0005347  30.6479 207.5227 14.79851420  3008
KUIPER-00115            
1 65152U 25171W   25297.83336806 -.00915768  00000+0 -75644-1 0  9991
2 65152  51.8939  50.0068 0009936  38.7539 276.6729 15.01490176  5342
KUIPER-00116            
1 65153U 25171X   25297.83336806  .00012452  00000+0  14750-2 0  9990
2 65153  51.8987  54.0033 0009874   6.8240 353.8508 14.84833881  5402
KUIPER-00118            
1 65154U 25171Y   25297.83336806  .00044518  00000+0  58248-2 0  9999
2 65154  51.9010  56.3398 0001888  60.2046 358.2522 14.79970648  4642
KUIPER-00119            
1 65155U 25171Z   25297.83336806 -.01118046  00000+0 -63128-1 0  9993
2 65155  51.8833  47.6897 0006869   2.3520 312.5555 15.15457165  5690
KUIPER-00120            
1 65762U 25217A   25297.83336806 -.01341882  00000+0 -53136-1 0  9992
2 65762  51.8676 301.4049 0010288 214.9947 155.2101 15.27918066  5507
KUIPER-00132            
1 65763U 25217B   25297.73190808  .00046204  00000+0  13071-2 0  9994
2 65763  51.8646 301.5246 0005515 199.1032 160.9748 15.35840145  4501
